[{"OBJECT_NAME":"STARLINK-32592","OBJECT_ID":"2024-216D","EPOCH":"2026-03-09T21:43:12.180576","MEAN_MOTION":15.27601841,"ECCENTRICITY":0.00017753,"INCLINATION":43.0007,"RA_OF_ASC_NODE":262.4547,"ARG_OF_PERICENTER":283.7388,"MEAN_ANOMALY":76.3266,"EPHEMERIS_TYPE":0,"CLASSIFICATION_TYPE":"U","NORAD_CAT_ID":62035,"ELEMENT_SET_NO":999,"REV_AT_EPOCH":7383,"BSTAR":0.00099861211,"MEAN_MOTION_DOT":0.00027338,"MEAN_MOTION_DDOT":0},{"OBJECT_NAME":"CZ-4C R\/B","OBJECT_ID":"2023-123B","EPOCH":"2026-03-09T21:44:40.426944","MEAN_MOTION":15.36684191,"ECCENTRICITY":0.00627803,"INCLINATION":97.9677,"RA_OF_ASC_NODE":50.672,"ARG_OF_PERICENTER":67.0775,"MEAN_ANOMALY":293.7077,"EPHEMERIS_TYPE":0,"CLASSIFICATION_TYPE":"U","NORAD_CAT_ID":57655,"ELEMENT_SET_NO":999,"REV_AT_EPOCH":14181,"BSTAR":0.00052203987,"MEAN_MOTION_DOT":0.00019917,"MEAN_MOTION_DDOT":0}]
